NORAD_CAT_ID,OBJECT_NAME,OBJECT_TYPE,EPOCH,MEAN_MOTION,ECCENTRICITY,INCLINATION,RA_OF_ASC_NODE,ARG_OF_PERICENTER,MEAN_ANOMALY,BSTAR,MEAN_MOTION_DOT,MEAN_MOTION_DDOT,TLE_LINE0,TLE_LINE1,TLE_LINE2,SEMIMAJOR_AXIS,PERIOD,APOGEE,PERIGEE,DECAYED
55436.0,STARLINK-5640,PAYLOAD,2023-12-23 08:03:02,14.98346245,0.0002519,70.0017,340.1344,245.2122,114.8775,0.00023782,2.747e-05,0.0,0 STARLINK-5640,1 55436U 23014AX  23357.33544804  .00002747  00000-0  23782-3 0  9999,2 55436  70.0017 340.1344 0002519 245.2122 114.8775 14.98346245 49196,6950.143,96.106,573.758,570.257,0.0
55436.0,STARLINK-5640,PAYLOAD,2023-12-23 22:28:15,14.98340087,0.0002588,70.0012,338.6179,263.3342,96.7522,0.00021101,2.426e-05,0.0,0 STARLINK-5640,1 55436U 23014AX  23357.93628965  .00002426  00000-0  21101-3 0  9993,2 55436  70.0012 338.6179 0002588 263.3342  96.7522 14.98340087 50222,6950.162,96.106,573.825,570.228,0.0
55436.0,STARLINK-5640,PAYLOAD,2023-12-24 03:16:40,14.98326779,0.0002731,70.0008,338.1128,262.9811,97.1038,4.9889e-05,5.02e-06,0.0,0 STARLINK-5640,1 55436U 23014AX  23358.13658068  .00000502  00000-0  49889-4 0  9990,2 55436  70.0008 338.1128 0002731 262.9811  97.1038 14.98326779 49319,6950.203,96.107,573.966,570.17,0.0
55436.0,STARLINK-5640,PAYLOAD,2023-12-24 09:41:12,14.98331455,0.0002516,70.0012,337.4393,254.5643,105.5238,7.3058e-06,-6e-08,0.0,0 STARLINK-5640,1 55436U 23014AX  23358.40361837 -.00000006  00000-0  73058-5 0  9991,2 55436  70.0012 337.4393 0002516 254.5643 105.5238 14.98331455 50293,6950.188,96.107,573.802,570.305,0.0
55436.0,STARLINK-5640,PAYLOAD,2023-12-25 03:18:41,14.98326409,0.0002458,70.001,335.5873,237.9576,122.1344,6.2367e-05,6.51e-06,0.0,0 STARLINK-5640,1 55436U 23014AX  23359.13798033  .00000651  00000-0  62367-4 0  9999,2 55436  70.0010 335.5873 0002458 237.9576 122.1344 14.98326409 49461,6950.204,96.107,573.777,570.361,0.0
55436.0,STARLINK-5640,PAYLOAD,2023-12-25 08:07:05,14.98325895,0.0002581,70.0005,335.0813,262.4074,97.6792,0.00015518,1.759e-05,0.0,0 STARLINK-5640,1 55436U 23014AX  23359.33826030  .00001759  00000-0  15518-3 0  9995,2 55436  70.0005 335.0813 0002581 262.4074  97.6792 14.98325895 50437,6950.206,96.107,573.864,570.277,0.0
55436.0,STARLINK-5640,PAYLOAD,2023-12-26 03:20:42,14.98325045,0.0002348,70.0012,333.063,245.1284,114.9631,0.00010427,1.151e-05,0.0,0 STARLINK-5640,1 55436U 23014AX  23360.13938073  .00001151  00000-0  10427-3 0  9996,2 55436  70.0012 333.0630 0002348 245.1284 114.9631 14.98325045 49612,6950.208,96.107,573.705,570.441,0.0
55436.0,STARLINK-5640,PAYLOAD,2023-12-26 08:09:06,14.98325869,0.0002319,70.0012,332.5582,246.996,113.0954,0.0001055,1.166e-05,0.0,0 STARLINK-5640,1 55436U 23014AX  23360.33966162  .00001166  00000-0  10550-3 0  9991,2 55436  70.0012 332.5582 0002319 246.9960 113.0954 14.98325869 50580,6950.206,96.107,573.682,570.459,0.0
55436.0,STARLINK-5640,PAYLOAD,2023-12-26 22:34:19,14.98326151,0.0002305,70.0012,331.0412,255.0222,105.0682,0.00021348,2.455e-05,0.0,0 STARLINK-5640,1 55436U 23014AX  23360.94049961  .00002455  00000-0  21348-3 0  9996,2 55436  70.0012 331.0412 0002305 255.0222 105.0682 14.98326151 50677,6950.205,96.107,573.672,570.468,0.0
55436.0,STARLINK-5640,PAYLOAD,2023-12-27 03:22:43,14.98329592,0.0002248,70.0016,330.5396,249.798,110.2937,0.00014866,1.681e-05,0.0,0 STARLINK-5640,1 55436U 23014AX  23361.14077940  .00001681  00000-0  14866-3 0  9994,2 55436  70.0016 330.5396 0002248 249.7980 110.2937 14.98329592 49764,6950.194,96.107,573.622,570.497,0.0
55436.0,STARLINK-5640,PAYLOAD,2023-12-27 08:11:07,14.98326447,0.0002134,70.0018,330.0332,250.7242,109.3687,0.00019192,2.198e-05,0.0,0 STARLINK-5640,1 55436U 23014AX  23361.34106164  .00002198  00000-0  19192-3 0  9998,2 55436  70.0018 330.0332 0002134 250.7242 109.3687 14.98326447 50734,6950.204,96.107,573.552,570.586,0.0
55436.0,STARLINK-5640,PAYLOAD,2023-12-27 22:36:20,14.98324369,0.000158,70.0024,328.5162,269.1143,90.9835,0.00028419,3.299e-05,0.0,0 STARLINK-5640,1 55436U 23014AX  23361.94190119  .00003299  00000-0  28419-3 0  9992,2 55436  70.0024 328.5162 0001580 269.1143  90.9835 14.98324369 50823,6950.21,96.107,573.173,570.977,0.0
55436.0,STARLINK-5640,PAYLOAD,2023-12-28 03:24:44,14.98328082,0.0002107,70.0021,328.015,243.3937,116.7006,0.00010225,1.127e-05,0.0,0 STARLINK-5640,1 55436U 23014AX  23362.14218267  .00001127  00000-0  10225-3 0  9994,2 55436  70.0021 328.0150 0002107 243.3937 116.7006 14.98328082 49914,6950.199,96.107,573.528,570.599,0.0
55436.0,STARLINK-5640,PAYLOAD,2023-12-28 08:13:08,14.98326751,0.0002121,70.0015,327.5083,259.1638,100.9282,0.00013633,1.534e-05,0.0,0 STARLINK-5640,1 55436U 23014AX  23362.34246326  .00001534  00000-0  13633-3 0  9991,2 55436  70.0015 327.5083 0002121 259.1638 100.9282 14.98326751 50885,6950.203,96.107,573.542,570.594,0.0
55436.0,STARLINK-5640,PAYLOAD,2023-12-28 22:38:20,14.98331985,0.0002272,70.0012,325.9929,263.7321,96.3579,7.4441e-05,7.95e-06,0.0,0 STARLINK-5640,1 55436U 23014AX  23362.94329850  .00000795  00000-0  74441-4 0  9994,2 55436  70.0012 325.9929 0002272 263.7321  96.3579 14.98331985 50972,6950.187,96.107,573.631,570.473,0.0
55436.0,STARLINK-5640,PAYLOAD,2023-12-29 03:26:44,14.98389939,0.0002473,70.0009,325.488,259.9403,100.1477,-0.00099036,-0.00011908,0.0,0 STARLINK-5640,1 55436U 23014AX  23363.14356614 -.00011908  00000-0 -99036-3 0  9991,2 55436  70.0009 325.4880 0002473 259.9403 100.1477 14.98389939 50063,6950.008,96.103,573.591,570.154,0.0
55436.0,STARLINK-5640,PAYLOAD,2023-12-29 08:15:07,14.98383505,0.0002407,70.0008,324.982,261.5327,98.556,-0.00083299,-0.00010031,0.0,0 STARLINK-5640,1 55436U 23014AX  23363.34384047 -.00010031  00000-0 -83299-3 0  9994,2 55436  70.0008 324.9820 0002407 261.5327  98.5560 14.98383505 51035,6950.027,96.104,573.565,570.22,0.0
55436.0,STARLINK-5640,PAYLOAD,2023-12-29 22:40:21,14.98358319,0.0002079,70.0014,323.4664,269.0797,91.0124,-0.00034317,-4.188e-05,0.0,0 STARLINK-5640,1 55436U 23014AX  23363.94469234 -.00004188  00000-0 -34317-3 0  9995,2 55436  70.0014 323.4664 0002079 269.0797  91.0124 14.98358319 51120,6950.105,96.105,573.415,570.525,0.0
55436.0,STARLINK-5640,PAYLOAD,2023-12-30 03:28:45,14.98331403,0.0002251,70.001,322.9622,262.0213,98.0691,7.5708e-05,8.11e-06,0.0,0 STARLINK-5640,1 55436U 23014AX  23364.14497624  .00000811  00000-0  75708-4 0  9999,2 55436  70.0010 322.9622 0002251 262.0213  98.0691 14.98331403 50212,6950.189,96.107,573.618,570.489,0.0
55436.0,STARLINK-5640,PAYLOAD,2023-12-30 06:41:01,14.983333,0.0002412,70.0008,322.6257,266.8425,93.2458,9.3728e-05,1.026e-05,0.0,0 STARLINK-5640,1 55436U 23014AX  23364.27849498  .00001026  00000-0  93728-4 0  9994,2 55436  70.0008 322.6257 0002412 266.8425  93.2458 14.98333300 51178,6950.183,96.107,573.724,570.371,0.0
55436.0,STARLINK-5640,PAYLOAD,2023-12-30 22:42:23,14.98305936,0.0002711,70.0014,320.9411,268.805,91.2798,0.00033214,3.87e-05,0.0,0 STARLINK-5640,1 55436U 23014AX  23364.94610379  .00003870  00000-0  33214-3 0  9994,2 55436  70.0014 320.9411 0002711 268.8050  91.2798 14.98305936 51276,6950.267,96.109,574.017,570.248,0.0
55436.0,STARLINK-5640,PAYLOAD,2023-12-31 03:30:47,14.98325549,0.0002301,70.0011,320.4385,248.1163,111.9751,-1.0762e-05,-2.21e-06,0.0,0 STARLINK-5640,1 55436U 23014AX  23365.14638242 -.00000221  00000-0 -10762-4 0  9999,2 55436  70.0011 320.4385 0002301 248.1163 111.9751 14.98325549 50369,6950.207,96.107,573.671,570.472,0.0
55436.0,STARLINK-5640,PAYLOAD,2023-12-31 22:44:23,14.98330185,0.0002675,70.0003,318.4173,269.8433,90.242,2.968e-05,2.61e-06,0.0,0 STARLINK-5640,1 55436U 23014AX  23365.94749814  .00000261  00000-0  29680-4 0  9996,2 55436  70.0003 318.4173 0002675 269.8433  90.2420 14.98330185 51428,6950.192,96.107,573.916,570.198,0.0
55436.0,STARLINK-5640,PAYLOAD,2024-01-01 03:32:47,14.98330004,0.0002905,70.0001,317.9124,274.4463,85.6364,7.1405e-05,7.59e-06,0.0,0 STARLINK-5640,1 55436U 23014AX  24001.14777755  .00000759  00000-0  71405-4 0  9995,2 55436  70.0001 317.9124 0002905 274.4463  85.6364 14.98330004 50511,6950.193,96.107,574.077,570.039,0.0
55436.0,STARLINK-5640,PAYLOAD,2024-01-01 06:45:03,14.9833735,0.0002735,70.0003,317.5758,271.2359,88.8487,3.3549e-05,3.07e-06,0.0,0 STARLINK-5640,1 55436U 23014AX  24001.28129349  .00000307  00000-0  33549-4 0  9996,2 55436  70.0003 317.5758 0002735 271.2359  88.8487 14.98337350 50536,6950.17,96.107,573.936,570.134,0.0
55436.0,STARLINK-5640,PAYLOAD,2024-01-01 22:46:24,14.98328386,0.0002652,70.0003,315.8925,265.3886,94.697,0.00016026,1.82e-05,0.0,0 STARLINK-5640,1 55436U 23014AX  24001.94889546  .00001820  00000-0  16026-3 0  9992,2 55436  70.0003 315.8925 0002652 265.3886  94.6970 14.98328386 51576,6950.198,96.107,573.906,570.22,0.0
55436.0,STARLINK-5640,PAYLOAD,2024-01-02 06:47:04,14.98337583,0.0002184,70.0004,315.0505,264.2487,95.8423,0.00015276,1.731e-05,0.0,0 STARLINK-5640,1 55436U 23014AX  24002.28269070  .00001731  00000-0  15276-3 0  9991,2 55436  70.0004 315.0505 0002184 264.2487  95.8423 14.98337583 50684,6950.169,96.107,573.552,570.517,0.0
55436.0,STARLINK-5640,PAYLOAD,2024-01-02 22:48:26,14.98261953,0.0002083,70.0008,313.3677,275.0734,85.0187,0.0012878,0.00015279,0.0,0 STARLINK-5640,1 55436U 23014AX  24002.95030365  .00015279  00000-0  12878-2 0  9994,2 55436  70.0008 313.3677 0002083 275.0734  85.0187 14.98261953 51723,6950.403,96.111,573.716,570.821,0.0
55436.0,STARLINK-5640,PAYLOAD,2024-01-03 03:36:49,14.98333121,0.0002518,70.0008,312.8626,271.2749,88.8122,5.0041e-05,5.04e-06,0.0,0 STARLINK-5640,1 55436U 23014AX  24003.15057383  .00000504  00000-0  50041-4 0  9997,2 55436  70.0008 312.8626 0002518 271.2749  88.8122 14.98333121 50814,6950.183,96.107,573.798,570.298,0.0
55436.0,STARLINK-5640,PAYLOAD,2024-01-03 06:49:05,14.98334949,0.0002507,70.0008,312.526,271.2878,88.7994,6.8144e-05,7.2e-06,0.0,0 STARLINK-5640,1 55436U 23014AX  24003.28409190  .00000720  00000-0  68144-4 0  9991,2 55436  70.0008 312.5260 0002507 271.2878  88.7994 14.98334949 51777,6950.178,96.107,573.785,570.3,0.0
